FOX-1A (AO-85)          
1 40967U 15058D   24231.18457830  .00011928  00000+0  10732-2 0  9998
2 40967  64.7769 185.3137 0191269 285.2091  72.7938 14.82977856 14187
SINOD-D 1               
1 40968U 15058E   24229.04963360  .00012955  00000+0  11187-2 0  9997
2 40968  64.7765 184.0441 0185576 284.8254  73.2363 14.85127319 16700
ELEKTRO-L 2             
1 41105U 15074A   24231.01716275 -.00000119  00000+0  00000+0 0  9999
2 41105   4.9940  78.7211 0001938 144.8143  95.0446  1.00271271 31813
TELEOS-1                
1 41169U 15077D   24230.82304913  .00047208  00000+0  13371-2 0  9999
2 41169  14.9798  67.9550 0006712  39.6769 320.4045 15.34331284480328
DAMPE                   
1 41173U 15078A   24231.17451893  .00003854  00000+0  14580-3 0  9997
2 41173  97.4330 224.4735 0010959 285.3975  74.6053 15.27513179482442
ORBCOMM FM114           
1 41179U 15081A   24230.49804444  .00002355  00000+0  55639-3 0  9990
2 41179  47.0018 280.0264 0001839 349.9416  10.1432 14.56937512460210
ORBCOMM FM110           
1 41182U 15081D   24230.61225821  .00002584  00000+0  60618-3 0  9991
2 41182  47.0006 278.8854 0002516 238.8553 121.2085 14.57001275460051
ORBCOMM FM112           
1 41184U 15081F   24231.20459880  .00002750  00000+0  64441-3 0  9996
2 41184  46.9971 185.1193 0001298  48.6572 311.4424 14.56870516461515
ORBCOMM FM113           
1 41185U 15081G   24231.11317512  .00002874  00000+0  67156-3 0  9995
2 41185  46.9989 185.8325 0000792  62.4172 297.6793 14.56880551461500
ORBCOMM FM108           
1 41187U 15081J   24230.86194631  .00003856  00000+0  88774-3 0  9993
2 41187  47.0041  98.2578 0002151 347.0775  13.0055 14.56909116462547
ORBCOMM FM117           
1 41188U 15081K   24231.10225967  .00003627  00000+0  83757-3 0  9991
2 41188  47.0001  95.9865 0002709   4.3247 355.7661 14.56896418462676
ORBCOMM FM116           
1 41189U 15081L   24231.15946290  .00002883  00000+0  67394-3 0  9998
2 41189  47.0000 185.5366 0001461  77.2490 282.8559 14.56860156461519
CHUBUSAT-2              
1 41338U 16012B   24230.74251168  .00013361  00000+0  81040-3 0  9993
2 41338  31.0018 354.3683 0011221 131.5595 228.6006 15.09300044466907
CHUBUSAT-3              
1 41339U 16012C   24230.77734436  .00011909  00000+0  73561-3 0  9996
2 41339  31.0083 353.0349 0011224 136.3049 223.8479 15.08615745466799
HORYU-4                 
1 41340U 16012D   24230.51330284  .00027743  00000+0  12968-2 0  9999
2 41340  31.0024 295.3608 0008989 229.5942 130.3914 15.18592275467478
ZIYUAN 3-2 (ZY 3-2)     
1 41556U 16033A   24231.18201916  .00019858  00000+0  88386-3 0  9990
2 41556  97.4530 305.9380 0001309 346.1045  14.0154 15.21505537456425
CARTOSAT-2C             
1 41599U 16040A   24231.13378625  .00014610  00000+0  69275-3 0  9999
2 41599  97.4694 289.5314 0012637 298.7090  61.2874 15.19322141452283
LAPAN-A3                
1 41603U 16040E   24231.16116192  .00007477  00000+0  29386-3 0  9999
2 41603  97.1420 242.0976 0010264 235.3793 124.6479 15.25903746452673
BIROS                   
1 41604U 16040F   24231.08261121  .00028185  00000+0  69251-3 0  9998
2 41604  97.1205 257.8476 0008986 169.0663 191.0781 15.40579772453705
M3MSAT                  
1 41605U 16040G   24231.03971329  .00034380  00000+0  85126-3 0  9995
2 41605  97.1196 254.9570 0008607 186.2930 173.8210 15.40309945453513
GAOFEN-3                
1 41727U 16049A   24231.18066468  .00000389  00000+0  13131-3 0  9993
2 41727  98.4065 237.9306 0001625  81.2232 278.9141 14.42206352422354
QSS (MOZI)              
1 41731U 16051A   24231.16674299  .00021274  00000+0  54262-3 0  9992
2 41731  97.3043 142.8666 0009585  16.6437 343.5122 15.39492052446229
PRATHAM                 
1 41783U 16059A   24230.46484975  .00002603  00000+0  48936-3 0  9995
2 41783  97.8358 246.9295 0032376 183.5021 176.5962 14.65119976421511
ALSAT 1N                
1 41789U 16059G   24231.15624472  .00003485  00000+0  62890-3 0  9990
2 41789  97.8265 253.7517 0027832 158.0827 202.1575 14.66825949421970
CAS-2T & KS-1Q          
1 41847U 16066G   24230.80955393  .00002948  00000+0  43642-3 0  9990
2 41847  98.4570 301.6496 0352563 351.9541   7.6081 14.41627908408376
YUNHAI-1 01             
1 41857U 16068A   24231.18709946  .00001074  00000+0  40835-3 0  9996
2 41857  98.5934 236.7950 0007083 176.5587 183.5647 14.33022636406165
RESOURCESAT-2A          
1 41877U 16074A   24231.15315982  .00000639  00000+0  31083-3 0  9996
2 41877  98.6421 303.3518 0001608 138.9411 221.1888 14.21661370399398
TANSAT                  
1 41898U 16081A   24231.16641693  .00002247  00000+0  49106-3 0  9991
2 41898  98.4748 203.1515 0019988 209.3584 150.6493 14.58681497407186
JILIN-1 03              
1 41914U 17002B   24231.18025536  .00019382  00000+0  86401-3 0  9995
2 41914  97.2157 245.5160 0010390  54.4437 305.7766 15.21404470419584
KAIDUN 1                
1 41915U 17002C   24231.13846215  .00037803  00000+0  12070-2 0  9994
2 41915  97.1987 257.2198 0006311  35.2894 324.8765 15.32361535420352
CARTOSAT-2D             
1 41948U 17008A   24231.16666379  .00015540  00000+0  73999-3 0  9992
2 41948  97.4214 289.3824 0005283  61.0095 299.1668 15.19217352416154
ZHUHAI-1 02 (CAS-4B)    
1 42759U 17034B   24231.15191481  .00039746  00000+0  12950-2 0  9991
2 42759  43.0150 235.6910 0011070  38.9675 321.1974 15.31114114396899
ZHUHAI-1 01 (CAS-4A)    
1 42761U 17034D   24231.14848495  .00039581  00000+0  12838-2 0  9999
2 42761  43.0187 234.0174 0010236  52.0595 308.1182 15.31269335396902
CARTOSAT-2E             
1 42767U 17036C   24231.18336249  .00015779  00000+0  74942-3 0  9998
2 42767  97.4335 289.5995 0005032 125.1009 235.0698 15.19306337396722
AALTO-1                 
1 42775U 17036L   24230.67485833  .00561842  13132-3  14689-2 0  9996
2 42775  97.0886 261.9358 0003955 209.0392 151.0665 15.94910070398804
D-SAT                   
1 42794U 17036AF  24230.91943141  .00015481  00000+0  10489-2 0  9998
2 42794  97.4791 210.5903 0104928 298.9366  60.1368 15.02095812389986
IRIDIUM 113             
1 42803U 17039A   24231.13702830  .00000092  00000+0  25684-4 0  9992
2 42803  86.3939 241.2851 0002504  89.1948 270.9535 14.34216807375439
NORSAT 2                
1 42828U 17042D   24230.48421315  .00016275  00000+0  12200-2 0  9994
2 42828  97.3793  53.6929 0013806 201.2608 158.8046 15.02671993386625
TECHNOSAT               
1 42829U 17042E   24231.14859028  .00009234  00000+0  79912-3 0  9996
2 42829  97.3857  48.7786 0011626 222.6008 137.4314 14.97310865386444
FLYING LAPTOP           
1 42831U 17042G   24230.87807919  .00005463  00000+0  49611-3 0  9993
2 42831  97.3881  48.2722 0011734 225.7077 134.3184 14.95602337386356
WNISAT 1R               
1 42835U 17042L   24231.09591912  .00006937  00000+0  62487-3 0  9998
2 42835  97.3855  48.3468 0011157 220.7568 139.2820 14.95834035386418
LEMUR-2-GREENBERG       
1 42837U 17042N   24230.07531720  .00022754  00000+0  15537-2 0  9996
2 42837  97.3632  55.9687 0014829 181.1537 178.9659 15.06093600386806
LEMUR-2-FURIAUS         
1 42840U 17042R   24230.06393026  .00020896  00000+0  14823-2 0  9996
2 42840  97.3662  55.6288 0012443 231.8582 128.1525 15.04713817386738
CORVUS BC2              
1 42846U 17042X   24230.04114027  .00008632  00000+0  72701-3 0  9996
2 42846  97.3741  51.7819 0007887 205.5551 154.5284 14.98413716386551
CORVUS BC1              
1 42847U 17042Y   24231.06427364  .00011070  00000+0  92641-3 0  9996
2 42847  97.3752  53.1600 0007101 193.6085 166.4949 14.98599067386729
VRSS-2                  
1 42954U 17060A   24231.13013282  .00003817  00000+0  52463-3 0  9991
2 42954  97.7496 285.0671 0019358 118.1936 242.1234 14.78764488369623
MOHAMMED VI-A           
1 43005U 17070A   24231.20766209  .00003110  00000+0  44786-3 0  9997
2 43005  97.9529 302.1402 0001210  86.5689 273.5659 14.77047185365378
FENGYUN 3D              
1 43010U 17072A   24231.12869888  .00000476  00000+0  24791-3 0  9999
2 43010  98.9150 186.1606 0002090 127.5635 232.5731 14.19397161350205
CZ-4C R/B               
1 43012U 17072C   24230.73977262  .00001690  00000+0  34476-3 0  9993
2 43012  98.5972 306.4757 0125840  49.6503 311.5603 14.57490187359216
NOAA 20 (JPSS-1)        
1 43013U 17073A   24231.15671686  .00000358  00000+0  19049-3 0  9992
2 43013  98.7071 168.0427 0002272  65.8020 294.3393 14.19564280349691
MIRATA                  
1 43015U 17073C   24230.73479126  .00050152  00000+0  21593-2 0  9995
2 43015  97.5869 114.8657 0161886  50.8582 310.6909 15.11298766365614
MAKERSAT 0              
1 43016U 17073D   24230.89905849  .00031545  00000+0  17018-2 0  9991
2 43016  97.5735 108.2163 0190839  74.0461 288.1696 15.00345537365169
RADFXSAT (FOX-1B)       
1 43017U 17073E   24231.20894441  .00021383  00000+0  12712-2 0  9998
2 43017  97.5693 104.5312 0208092  86.1882 276.3103 14.94852049364928
EAGLESAT 1              
1 43018U 17073F   24231.16278711  .00053476  00000+0  23520-2 0  9997
2 43018  97.5865 115.0709 0166779  54.2381 307.4226 15.09988411365431
JILIN-1 04              
1 43022U 17074A   24231.17742360  .00018251  00000+0  79899-3 0  9993
2 43022  97.4875 322.5795 0007040  62.7237 297.4715 15.22069747371957
JILIN-1 05              
1 43023U 17074B   24231.19825463  .00014855  00000+0  65837-3 0  9995
2 43023  97.4901 323.1121 0007656  74.7788 285.4294 15.21690888371960
JILIN-1 06              
1 43024U 17074C   24231.19609970  .00015585  00000+0  74596-3 0  9992
2 43024  97.4896 321.6256 0010354  80.1990 280.0413 15.19005743371872
IRIDIUM 116             
1 43072U 17083C   24231.11165442 -.00000039  00000+0 -20900-4 0  9999
2 43072  86.3936 241.1699 0002087  91.8451 268.2984 14.34215504348418
IRIDIUM 130             
1 43073U 17083D   24230.10318631  .00000068  00000+0  17315-4 0  9994
2 43073  86.3936 241.8018 0002289  89.1289 271.0169 14.34217240348218
